{
  "links" : {
    "next" : "https://api.nasa.gov/neo/rest/v1/feed?start_date=2010-09-09&end_date=2010-09-09&detailed=true&api_key=t0TVs3DtDT2H8Oy2Zy8m2eVrNsAVKAexjcZXUckd",
    "prev" : "https://api.nasa.gov/neo/rest/v1/feed?start_date=2010-09-07&end_date=2010-09-07&detailed=true&api_key=t0TVs3DtDT2H8Oy2Zy8m2eVrNsAVKAexjcZXUckd",
    "self" : "https://api.nasa.gov/neo/rest/v1/feed?start_date=2010-09-08&end_date=2010-09-08&detailed=true&api_key=t0TVs3DtDT2H8Oy2Zy8m2eVrNsAVKAexjcZXUckd"
  },
  "element_count" : 7,
  "near_earth_objects" : {
    "2010-09-08" : [ {
      "links" : {
        "self" : "https://api.nasa.gov/neo/rest/v1/neo/3545901?api_key=t0TVs3DtDT2H8Oy2Zy8m2eVrNsAVKAexjcZXUckd"
      },
      "neo_reference_id" : "3545901",
      "name" : "(2010 RK53)",
      "nasa_jpl_url" : "http://ssd.jpl.nasa.gov/sbdb.cgi?sstr=3545901",
      "absolute_magnitude_h" : 27.9,
      "estimated_diameter" : {
        "kilometers" : {
          "estimated_diameter_min" : 0.0069912523,
          "estimated_diameter_max" : 0.0156329154
        },
        "meters" : {
          "estimated_diameter_min" : 6.9912523225,
          "estimated_diameter_max" : 15.6329154409
        },
        "miles" : {
          "estimated_diameter_min" : 0.0043441614,
          "estimated_diameter_max" : 0.0097138403
        },
        "feet" : {
          "estimated_diameter_min" : 22.9371802696,
          "estimated_diameter_max" : 51.289094295
        }
      },
      "is_potentially_hazardous_asteroid" : false,
      "close_approach_data" : [ {
        "close_approach_date" : "2010-09-08",
        "epoch_date_close_approach" : 1283929200000,
        "relative_velocity" : {
          "kilometers_per_second" : "8.8103344102",
          "kilometers_per_hour" : "31717.2038766241",
          "miles_per_hour" : "19707.8370421168"
        },
        "miss_distance" : {
          "astronomical" : "0.0004824397",
          "lunar" : "0.1876690388",
          "kilometers" : "72171.953125",
          "miles" : "44845.57421875"
        },
        "orbiting_body" : "Earth"
      } ],
      "orbital_data" : {
        "orbit_id" : "7",
        "orbit_determination_date" : "2017-04-06 08:56:46",
        "orbit_uncertainty" : "8",
        "minimum_orbit_intersection" : "6.91401E-5",
        "jupiter_tisserand_invariant" : "4.822",
        "epoch_osculation" : "2455453.5",
        "eccentricity" : ".3140692187770893",
        "semi_major_axis" : "1.34755440272413",
        "inclination" : "6.100839922750496",
        "ascending_node_longitude" : "346.1538783576512",
        "orbital_period" : "571.3705972791763",
        "perihelion_distance" : ".9243290442009351",
        "perihelion_argument" : "310.8911904485014",
        "aphelion_distance" : "1.770779761247324",
        "perihelion_time" : "2455407.562680103753",
        "mean_anomaly" : "28.94344798524625",
        "mean_motion" : ".6300639229849994",
        "equinox" : "J2000"
      }
    }, {
      "links" : {
        "self" : "https://api.nasa.gov/neo/rest/v1/neo/3545907?api_key=t0TVs3DtDT2H8Oy2Zy8m2eVrNsAVKAexjcZXUckd"
      },
      "neo_reference_id" : "3545907",
      "name" : "(2010 RP64)",
      "nasa_jpl_url" : "http://ssd.jpl.nasa.gov/sbdb.cgi?sstr=3545907",
      "absolute_magnitude_h" : 27.2,
      "estimated_diameter" : {
        "kilometers" : {
          "estimated_diameter_min" : 0.0096506147,
          "estimated_diameter_max" : 0.0215794305
        },
        "meters" : {
          "estimated_diameter_min" : 9.6506146958,
          "estimated_diameter_max" : 21.5794304844
        },
        "miles" : {
          "estimated_diameter_min" : 0.0059966121,
          "estimated_diameter_max" : 0.0134088323
        },
        "feet" : {
          "estimated_diameter_min" : 31.6621227185,
          "estimated_diameter_max" : 70.7986587106
        }
      },
      "is_potentially_hazardous_asteroid" : false,
      "close_approach_data" : [ {
        "close_approach_date" : "2010-09-08",
        "epoch_date_close_approach" : 1283929200000,
        "relative_velocity" : {
          "kilometers_per_second" : "8.4117460397",
          "kilometers_per_hour" : "30282.2857430496",
          "miles_per_hour" : "18816.2347162855"
        },
        "miss_distance" : {
          "astronomical" : "0.0152553984",
          "lunar" : "5.9343500137",
          "kilometers" : "2282175",
          "miles" : "1418077.875"
        },
        "orbiting_body" : "Earth"
      } ],
      "orbital_data" : {
        "orbit_id" : "7",
        "orbit_determination_date" : "2017-04-06 08:56:45",
        "orbit_uncertainty" : "8",
        "minimum_orbit_intersection" : ".015154",
        "jupiter_tisserand_invariant" : "3.554",
        "epoch_osculation" : "2455451.5",
        "eccentricity" : ".5206541690039566",
        "semi_major_axis" : "2.101845275730215",
        "inclination" : "6.403326414090904",
        "ascending_node_longitude" : "169.8817922665997",
        "orbital_period" : "1113.011217095687",
        "perihelion_distance" : "1.007510770320008",
        "perihelion_argument" : "160.1139393220177",
        "aphelion_distance" : "3.196179781140422",
        "perihelion_time" : "2455434.917721826107",
        "mean_anomaly" : "5.363486055584168",
        "mean_motion" : ".3234468749914228",
        "equinox" : "J2000"
      }
    }, {
      "links" : {
        "self" : "https://api.nasa.gov/neo/rest/v1/neo/3545552?api_key=t0TVs3DtDT2H8Oy2Zy8m2eVrNsAVKAexjcZXUckd"
      },
      "neo_reference_id" : "3545552",
      "name" : "(2010 RF12)",
      "nasa_jpl_url" : "http://ssd.jpl.nasa.gov/sbdb.cgi?sstr=3545552",
      "absolute_magnitude_h" : 28.1,
      "estimated_diameter" : {
        "kilometers" : {
          "estimated_diameter_min" : 0.0063760979,
          "estimated_diameter_max" : 0.0142573883
        },
        "meters" : {
          "estimated_diameter_min" : 6.3760978988,
          "estimated_diameter_max" : 14.2573883328
        },
        "miles" : {
          "estimated_diameter_min" : 0.0039619223,
          "estimated_diameter_max" : 0.0088591276
        },
        "feet" : {
          "estimated_diameter_min" : 20.9189570301,
          "estimated_diameter_max" : 46.7762099378
        }
      },
      "is_potentially_hazardous_asteroid" : false,
      "close_approach_data" : [ {
        "close_approach_date" : "2010-09-08",
        "epoch_date_close_approach" : 1283929200000,
        "relative_velocity" : {
          "kilometers_per_second" : "6.0041705826",
          "kilometers_per_hour" : "21615.0140974764",
          "miles_per_hour" : "13430.7291762903"
        },
        "miss_distance" : {
          "astronomical" : "0.000530652",
          "lunar" : "0.2064236253",
          "kilometers" : "79384.4140625",
          "miles" : "49327.1875"
        },
        "orbiting_body" : "Earth"
      } ],
      "orbital_data" : {
        "orbit_id" : "17",
        "orbit_determination_date" : "2017-04-06 08:56:52",
        "orbit_uncertainty" : "4",
        "minimum_orbit_intersection" : ".000625603",
        "jupiter_tisserand_invariant" : "5.793",
        "epoch_osculation" : "2458000.5",
        "eccentricity" : ".1882329622820639",
        "semi_major_axis" : "1.060462000922179",
        "inclination" : ".88274263081733",
        "ascending_node_longitude" : "163.8412249778223",
        "orbital_period" : "398.8789277755973",
        "perihelion_distance" : ".8608480971010326",
        "perihelion_argument" : "267.5583689857104",
        "aphelion_distance" : "1.260075904743326",
        "perihelion_time" : "2457912.465568058837",
        "mean_anomaly" : "79.45367200908683",
        "mean_motion" : ".9025295018906841",
        "equinox" : "J2000"
      }
    } ]
  }
}